{"type": "FeatureCollection", "features": [ {"type": "Feature", "properties": {"norad_id": 33867, "name": "IRIDIUM 33 DEB", "group": "iridium-33-debris", "lat": 58.36051305015142, "lon": 159.41692830015882, "alt_km": 292.001529527055, "timestamp": "2025-12-21T18:54:58.880591+00:00", "meta": {"OBJECT_NAME": "IRIDIUM 33 DEB", "OBJECT_ID": "1997-051AL", "EPOCH": "2025-12-20T00:00:24.546240", "MEAN_MOTION": 15.83320916, "ECCENTRICITY": 0.00135723, "INCLINATION": 86.3644, "RA_OF_ASC_NODE": 346.2932, "ARG_OF_PERICENTER": 95.1198, "MEAN_ANOMALY": 265.1629, "EPHEMERIS_TYPE": 0, "CLASSIFICATION_TYPE": "U", "NORAD_CAT_ID": 33867, "ELEMENT_SET_NO": 999, "REV_AT_EPOCH": 89625, "BSTAR": 0.0064207293, "MEAN_MOTION_DOT": 0.01574163, "MEAN_MOTION_DDOT": 0}, "tle": {"line1": "1 33867U 97051AL  25354.00028410  .01574163  00000+0  64207-2 0  9990", "line2": "2 33867  86.3644 346.2932 0013572  95.1198 265.1629 15.83320916896259"}}, "geometry": {"type": "Point", "coordinates": [159.41692830015882, 58.36051305015142]}}, {"type": "Feature", "properties": {"norad_id": 33870, "name": "IRIDIUM 33 DEB", "group": "iridium-33-debris", "lat": -54.82863222396132, "lon": -120.45466357080716, "alt_km": 745.016049248371, "timestamp": "2025-12-21T18:54:58.880602+00:00", "meta": {"OBJECT_NAME": "IRIDIUM 33 DEB", "OBJECT_ID": "1997-051AP", "EPOCH": "2025-12-21T02:58:57.296064", "MEAN_MOTION": 14.45889028, "ECCENTRICITY": 0.00222885, "INCLINATION": 86.3739, "RA_OF_ASC_NODE": 54.6669, "ARG_OF_PERICENTER": 151.351, "MEAN_ANOMALY": 229.7461, "EPHEMERIS_TYPE": 0, "CLASSIFICATION_TYPE": "U", "NORAD_CAT_ID": 33870, "ELEMENT_SET_NO": 999, "REV_AT_EPOCH": 88258, "BSTAR": 0.00047353054, "MEAN_MOTION_DOT": 1.707e-05, "MEAN_MOTION_DDOT": 0}, "tle": {"line1": "1 33870U 97051AP  25355.12427426  .00001707  00000+0  47353-3 0  9990", "line2": "2 33870  86.3739  54.6669 0022288 151.3510 229.7461 14.45889028882584"}}, "geometry": {"type": "Point", "coordinates": [-120.45466357080716, -54.82863222396132]}}, {"type": "Feature", "properties": {"norad_id": 33881, "name": "IRIDIUM 33 DEB", "group": "iridium-33-debris", "lat": 85.30925513705996, "lon": -127.55781806691719, "alt_km": 669.7510291349754, "timestamp": "2025-12-21T18:54:58.880613+00:00", "meta": {"OBJECT_NAME": "IRIDIUM 33 DEB", "OBJECT_ID": "1997-051BA", "EPOCH": "2025-12-21T08:54:02.892384", "MEAN_MOTION": 14.56711951, "ECCENTRICITY": 0.00612443, "INCLINATION": 86.3865, "RA_OF_ASC_NODE": 102.9912, "ARG_OF_PERICENTER": 146.8792, "MEAN_ANOMALY": 279.602, "EPHEMERIS_TYPE": 0, "CLASSIFICATION_TYPE": "U", "NORAD_CAT_ID": 33881, "ELEMENT_SET_NO": 999, "REV_AT_EPOCH": 87626, "BSTAR": 0.0014450867, "MEAN_MOTION_DOT": 6.645e-05, "MEAN_MOTION_DDOT": 0}, "tle": {"line1": "1 33881U 97051BA  25355.37086681  .00006645  00000+0  14451-2 0  9991", "line2": "2 33881  86.3865 102.9912 0061244 146.8792 279.6020 14.56711951876264"}}, "geometry": {"type": "Point", "coordinates": [-127.55781806691719, 85.30925513705996]}}, {"type": "Feature", "properties": {"norad_id": 33884, "name": "IRIDIUM 33 DEB", "group": "iridium-33-debris", "lat": -1.2495344720408026, "lon": 5.653980359976395, "alt_km": 638.0896485882322, "timestamp": "2025-12-21T18:54:58.880623+00:00", "meta": {"OBJECT_NAME": "IRIDIUM 33 DEB", "OBJECT_ID": "1997-051BD", "EPOCH": "2025-12-21T09:23:30.185376", "MEAN_MOTION": 14.77584501, "ECCENTRICITY": 0.00090514, "INCLINATION": 86.3691, "RA_OF_ASC_NODE": 5.9125, "ARG_OF_PERICENTER": 289.7226, "MEAN_ANOMALY": 119.4143, "EPHEMERIS_TYPE": 0, "CLASSIFICATION_TYPE": "U", "NORAD_CAT_ID": 33884, "ELEMENT_SET_NO": 999, "REV_AT_EPOCH": 88975, "BSTAR": 0.0011813751, "MEAN_MOTION_DOT": 8.471e-05, "MEAN_MOTION_DDOT": 0}, "tle": {"line1": "1 33884U 97051BD  25355.39132159  .00008471  00000+0  11814-2 0  9997", "line2": "2 33884  86.3691   5.9125 0009051 289.7226 119.4143 14.77584501889756"}}, "geometry": {"type": "Point", "coordinates": [5.653980359976395, -1.2495344720408026]}}, {"type": "Feature", "properties": {"norad_id": 33886, "name": "IRIDIUM 33 DEB", "group": "iridium-33-debris", "lat": 15.877571215081407, "lon": 64.4512136265713, "alt_km": 781.4299550661099, "timestamp": "2025-12-21T18:54:58.880634+00:00", "meta": {"OBJECT_NAME": "IRIDIUM 33 DEB", "OBJECT_ID": "1997-051BF", "EPOCH": "2025-12-21T14:23:24.825696", "MEAN_MOTION": 14.36061398, "ECCENTRICITY": 0.00130945, "INCLINATION": 86.3823, "RA_OF_ASC_NODE": 63.4995, "ARG_OF_PERICENTER": 209.9191, "MEAN_ANOMALY": 271.7161, "EPHEMERIS_TYPE": 0, "CLASSIFICATION_TYPE": "U", "NORAD_CAT_ID": 33886, "ELEMENT_SET_NO": 999, "REV_AT_EPOCH": 88179, "BSTAR": 0.00014938103, "MEAN_MOTION_DOT": 4.54e-06, "MEAN_MOTION_DDOT": 0}, "tle": {"line1": "1 33886U 97051BF  25355.59959289  .00000454  00000+0  14938-3 0  9996", "line2": "2 33886  86.3823  63.4995 0013094 209.9191 271.7161 14.36061398881793"}}, "geometry": {"type": "Point", "coordinates": [64.4512136265713, 15.877571215081407]}}, {"type": "Feature", "properties": {"norad_id": 33887, "name": "IRIDIUM 33 DEB", "group": "iridium-33-debris", "lat": -9.827294398333258, "lon": -1.1489463455601094, "alt_km": 775.5006689294105, "timestamp": "2025-12-21T18:54:58.880645+00:00", "meta": {"OBJECT_NAME": "IRIDIUM 33 DEB", "OBJECT_ID": "1997-051BG", "EPOCH": "2025-12-21T12:52:53.713920", "MEAN_MOTION": 14.37228392, "ECCENTRICITY": 0.00053686, "INCLINATION": 86.3041, "RA_OF_ASC_NODE": 359.6009, "ARG_OF_PERICENTER": 191.7702, "MEAN_ANOMALY": 298.3026, "EPHEMERIS_TYPE": 0, "CLASSIFICATION_TYPE": "U", "NORAD_CAT_ID": 33887, "ELEMENT_SET_NO": 999, "REV_AT_EPOCH": 88291, "BSTAR": 0.00012023578, "MEAN_MOTION_DOT": 3.78e-06, "MEAN_MOTION_DDOT": 0}, "tle": {"line1": "1 33887U 97051BG  25355.53673280  .00000378  00000+0  12024-3 0  9994", "line2": "2 33887  86.3041 359.6009 0005368 191.7702 298.3026 14.37228392882913"}}, "geometry": {"type": "Point", "coordinates": [-1.1489463455601094, -9.827294398333258]}}, {"type": "Feature", "properties": {"norad_id": 33953, "name": "IRIDIUM 33 DEB", "group": "iridium-33-debris", "lat": 75.37846833096614, "lon": 63.880677153199635, "alt_km": 688.3298713697459, "timestamp": "2025-12-21T18:54:58.880655+00:00", "meta": {"OBJECT_NAME": "IRIDIUM 33 DEB", "OBJECT_ID": "1997-051BN", "EPOCH": "2025-12-21T03:57:52.116192", "MEAN_MOTION": 14.55395308, "ECCENTRICITY": 0.00178869, "INCLINATION": 86.3839, "RA_OF_ASC_NODE": 50.1227, "ARG_OF_PERICENTER": 77.1433, "MEAN_ANOMALY": 336.6692, "EPHEMERIS_TYPE": 0, "CLASSIFICATION_TYPE": "U", "NORAD_CAT_ID": 33953, "ELEMENT_SET_NO": 999, "REV_AT_EPOCH": 88426, "BSTAR": 0.0006943937, "MEAN_MOTION_DOT": 3.042e-05, "MEAN_MOTION_DDOT": 0}, "tle": {"line1": "1 33953U 97051BN  25355.16518653  .00003042  00000+0  69439-3 0  9992", "line2": "2 33953  86.3839  50.1227 0017886  77.1433 336.6692 14.55395308884260"}}, "geometry": {"type": "Point", "coordinates": [63.880677153199635, 75.37846833096614]}}, {"type": "Feature", "properties": {"norad_id": 33960, "name": "IRIDIUM 33 DEB", "group": "iridium-33-debris", "lat": 42.232543955186486, "lon": 101.83717833044678, "alt_km": 608.676356657862, "timestamp": "2025-12-21T18:54:58.880665+00:00", "meta": {"OBJECT_NAME": "IRIDIUM 33 DEB", "OBJECT_ID": "1997-051BV", "EPOCH": "2025-12-21T02:11:40.664832", "MEAN_MOTION": 14.85568668, "ECCENTRICITY": 0.00073568, "INCLINATION": 86.2542, "RA_OF_ASC_NODE": 285.5753, "ARG_OF_PERICENTER": 46.9215, "MEAN_ANOMALY": 326.8092, "EPHEMERIS_TYPE": 0, "CLASSIFICATION_TYPE": "U", "NORAD_CAT_ID": 33960, "ELEMENT_SET_NO": 999, "REV_AT_EPOCH": 88991, "BSTAR": 0.0019890086, "MEAN_MOTION_DOT": 0.00017252, "MEAN_MOTION_DDOT": 0}, "tle": {"line1": "1 33960U 97051BV  25355.09144288  .00017252  00000+0  19890-2 0  9994", "line2": "2 33960  86.2542 285.5753 0007356  46.9215 326.8092 14.85568668889915"}}, "geometry": {"type": "Point", "coordinates": [101.83717833044678, 42.232543955186486]}}, {"type": "Feature", "properties": {"norad_id": 33966, "name": "IRIDIUM 33 DEB", "group": "iridium-33-debris", "lat": 14.471273919135903, "lon": 43.0771191938843, "alt_km": 732.7568814539982, "timestamp": "2025-12-21T18:54:58.880676+00:00", "meta": {"OBJECT_NAME": "IRIDIUM 33 DEB", "OBJECT_ID": "1997-051CB", "EPOCH": "2025-12-21T08:58:20.862048", "MEAN_MOTION": 14.49625093, "ECCENTRICITY": 0.00083762, "INCLINATION": 86.3913, "RA_OF_ASC_NODE": 42.3217, "ARG_OF_PERICENTER": 161.0555, "MEAN_ANOMALY": 212.7611, "EPHEMERIS_TYPE": 0, "CLASSIFICATION_TYPE": "U", "NORAD_CAT_ID": 33966, "ELEMENT_SET_NO": 999, "REV_AT_EPOCH": 88567, "BSTAR": 0.00039236704, "MEAN_MOTION_DOT": 1.527e-05, "MEAN_MOTION_DDOT": 0}, "tle": {"line1": "1 33966U 97051CB  25355.37385257  .00001527  00000+0  39237-3 0  9990", "line2": "2 33966  86.3913  42.3217 0008376 161.0555 212.7611 14.49625093885672"}}, "geometry": {"type": "Point", "coordinates": [43.0771191938843, 14.471273919135903]}}, {"type": "Feature", "properties": {"norad_id": 34071, "name": "IRIDIUM 33 DEB", "group": "iridium-33-debris", "lat": 76.39410035640488, "lon": 29.208771353159655, "alt_km": 713.1480034135366, "timestamp": "2025-12-21T18:54:58.880686+00:00", "meta": {"OBJECT_NAME": "IRIDIUM 33 DEB", "OBJECT_ID": "1997-051CE", "EPOCH": "2025-12-21T13:35:34.806912", "MEAN_MOTION": 14.49500279, "ECCENTRICITY": 0.00099174, "INCLINATION": 86.3449, "RA_OF_ASC_NODE": 13.9915, "ARG_OF_PERICENTER": 83.7763, "MEAN_ANOMALY": 276.4571, "EPHEMERIS_TYPE": 0, "CLASSIFICATION_TYPE": "U", "NORAD_CAT_ID": 34071, "ELEMENT_SET_NO": 999, "REV_AT_EPOCH": 88462, "BSTAR": 0.0004555325, "MEAN_MOTION_DOT": 1.766e-05, "MEAN_MOTION_DDOT": 0}, "tle": {"line1": "1 34071U 97051CE  25355.56637508  .00001766  00000+0  45553-3 0  9991", "line2": "2 34071  86.3449  13.9915 0009917  83.7763 276.4571 14.49500279884620"}}, "geometry": {"type": "Point", "coordinates": [29.208771353159655, 76.39410035640488]}}]}